[
    {
        "Altitude(m)": 554884.3506532817,
        "Argument of Periapsis(deg)": 0.006622991110713501,
        "Eccentricity": 0.0,
        "Inclination(deg)": 53.0,
        "Latitude(deg)": 28.940845727217297,
        "Longitude(deg)": -45.254870209840874,
        "Mean Anomaly(deg)": -217.1811071324224,
        "RAAN(deg)": 259.99014336852804,
        "Satellite Name": "Starlink Shell 1 1152",
        "Satellite Number": 1152,
        "Semi-Major Axis(m)": 6931778.249405717,
        "Time(s)": 190
    },
    {
        "Altitude(m)": 554814.4157645726,
        "Argument of Periapsis(deg)": 0.0069715695902247375,
        "Eccentricity": 0.0,
        "Inclination(deg)": 53.0,
        "Latitude(deg)": 28.48220408400502,
        "Longitude(deg)": -44.80712369119728,
        "Mean Anomaly(deg)": -216.55427592886565,
        "RAAN(deg)": 259.9896245984506,
        "Satellite Name": "Starlink Shell 1 1152",
        "Satellite Number": 1152,
        "Semi-Major Axis(m)": 6931778.249405717,
        "Time(s)": 200
    },
    {
        "Altitude(m)": 554745.7186228441,
        "Argument of Periapsis(deg)": 0.007320148069735974,
        "Eccentricity": 0.0,
        "Inclination(deg)": 53.0,
        "Latitude(deg)": 28.021788152756322,
        "Longitude(deg)": -44.363589054965104,
        "Mean Anomaly(deg)": -215.92744472530902,
        "RAAN(deg)": 259.98910582837306,
        "Satellite Name": "Starlink Shell 1 1152",
        "Satellite Number": 1152,
        "Semi-Major Axis(m)": 6931778.249405717,
        "Time(s)": 210
    },
    {
        "Altitude(m)": 554678.3114148175,
        "Argument of Periapsis(deg)": 0.007668726549247212,
        "Eccentricity": 0.0,
        "Inclination(deg)": 53.0,
        "Latitude(deg)": 27.559645838582735,
        "Longitude(deg)": -43.924166252496384,
        "Mean Anomaly(deg)": -215.3006135217523,
        "RAAN(deg)": 259.9885870582956,
        "Satellite Name": "Starlink Shell 1 1152",
        "Satellite Number": 1152,
        "Semi-Major Axis(m)": 6931778.249405717,
        "Time(s)": 220
    },
    {
        "Altitude(m)": 554612.2458657818,
        "Argument of Periapsis(deg)": 0.00801730502875845,
        "Eccentricity": 0.0,
        "Inclination(deg)": 53.0,
        "Latitude(deg)": 27.095824012069126,
        "Longitude(deg)": -43.48875655841175,
        "Mean Anomaly(deg)": -214.67378231819555,
        "RAAN(deg)": 259.98806828821813,
        "Satellite Name": "Starlink Shell 1 1152",
        "Satellite Number": 1152,
        "Semi-Major Axis(m)": 6931778.249405717,
        "Time(s)": 230
    },
    {
        "Altitude(m)": 554547.5732120398,
        "Argument of Periapsis(deg)": 0.008365883508269684,
        "Eccentricity": 0.0,
        "Inclination(deg)": 53.0,
        "Latitude(deg)": 26.630368538992794,
        "Longitude(deg)": -43.057262064650835,
        "Mean Anomaly(deg)": -214.04695111463883,
        "RAAN(deg)": 259.98754951814067,
        "Satellite Name": "Starlink Shell 1 1152",
        "Satellite Number": 1152,
        "Semi-Major Axis(m)": 6931778.249405717,
        "Time(s)": 240
    },
    {
        "Altitude(m)": 554484.3441735482,
        "Argument of Periapsis(deg)": 0.008714461987780921,
        "Eccentricity": 0.0,
        "Inclination(deg)": 53.0,
        "Latitude(deg)": 26.16332430955674,
        "Longitude(deg)": -42.62958668473219,
        "Mean Anomaly(deg)": -213.42011991108214,
        "RAAN(deg)": 259.98703074806315,
        "Satellite Name": "Starlink Shell 1 1152",
        "Satellite Number": 1152,
        "Semi-Major Axis(m)": 6931778.249405717,
        "Time(s)": 250
    },
    {
        "Altitude(m)": 554422.6089268193,
        "Argument of Periapsis(deg)": 0.009063040467292158,
        "Eccentricity": 0.0,
        "Inclination(deg)": 53.0,
        "Latitude(deg)": 25.69473526712493,
        "Longitude(deg)": -42.20563564270047,
        "Mean Anomaly(deg)": -212.79328870752542,
        "RAAN(deg)": 259.98651197798574,
        "Satellite Name": "Starlink Shell 1 1152",
        "Satellite Number": 1152,
        "Semi-Major Axis(m)": 6931778.249405717,
        "Time(s)": 260
    },
    {
        "Altitude(m)": 554362.417077978,
        "Argument of Periapsis(deg)": 0.009411618946803396,
        "Eccentricity": 0.0,
        "Inclination(deg)": 53.0,
        "Latitude(deg)": 25.224644436447868,
        "Longitude(deg)": -41.78531495984079,
        "Mean Anomaly(deg)": -212.16645750396873,
        "RAAN(deg)": 259.9859932079083,
        "Satellite Name": "Starlink Shell 1 1152",
        "Satellite Number": 1152,
        "Semi-Major Axis(m)": 6931778.249405717,
        "Time(s)": 270
    },
    {
        "Altitude(m)": 554303.8176361334,
        "Argument of Periapsis(deg)": 0.009760197426314633,
        "Eccentricity": 0.0,
        "Inclination(deg)": 53.0,
        "Latitude(deg)": 24.753093951366846,
        "Longitude(deg)": -41.368532452224926,
        "Mean Anomaly(deg)": -211.53962630041195,
        "RAAN(deg)": 259.98547443783076,
        "Satellite Name": "Starlink Shell 1 1152",
        "Satellite Number": 1152,
        "Semi-Major Axis(m)": 6931778.249405717,
        "Time(s)": 280
    },
    {
        "Altitude(m)": 554246.8589869547,
        "Argument of Periapsis(deg)": 0.01010877590582587,
        "Eccentricity": 0.0,
        "Inclination(deg)": 53.0,
        "Latitude(deg)": 24.280125081995116,
        "Longitude(deg)": -40.95519721352778,
        "Mean Anomaly(deg)": -210.91279509685523,
        "RAAN(deg)": 259.9849556677533,
        "Satellite Name": "Starlink Shell 1 1152",
        "Satellite Number": 1152,
        "Semi-Major Axis(m)": 6931778.249405717,
        "Time(s)": 290
    },
    {
        "Altitude(m)": 554191.5888665578,
        "Argument of Periapsis(deg)": 0.010457354385337106,
        "Eccentricity": 0.0,
        "Inclination(deg)": 53.0,
        "Latitude(deg)": 23.80577826136966,
        "Longitude(deg)": -40.545219096153645,
        "Mean Anomaly(deg)": -210.28596389329857,
        "RAAN(deg)": 259.98443689767583,
        "Satellite Name": "Starlink Shell 1 1152",
        "Satellite Number": 1152,
        "Semi-Major Axis(m)": 6931778.249405717,
        "Time(s)": 300
    },
    {
        "Altitude(m)": 554138.054335647,
        "Argument of Periapsis(deg)": 0.010805932864848343,
        "Eccentricity": 0.0,
        "Inclination(deg)": 53.0,
        "Latitude(deg)": 23.33009311156966,
        "Longitude(deg)": -40.13850970370139,
        "Mean Anomaly(deg)": -209.65913268974182,
        "RAAN(deg)": 259.9839181275984,
        "Satellite Name": "Starlink Shell 1 1152",
        "Satellite Number": 1152,
        "Semi-Major Axis(m)": 6931778.249405717,
        "Time(s)": 310
    },
    {
        "Altitude(m)": 554086.3017539734,
        "Argument of Periapsis(deg)": 0.01115451134435958,
        "Eccentricity": 0.0,
        "Inclination(deg)": 53.0,
        "Latitude(deg)": 22.85310846930616,
        "Longitude(deg)": -39.73498186917175,
        "Mean Anomaly(deg)": -209.03230148618516,
        "RAAN(deg)": 259.9833993575209,
        "Satellite Name": "Starlink Shell 1 1152",
        "Satellite Number": 1152,
        "Semi-Major Axis(m)": 6931778.249405717,
        "Time(s)": 320
    },
    {
        "Altitude(m)": 554036.3767550936,
        "Argument of Periapsis(deg)": 0.011503089823870818,
        "Eccentricity": 0.0,
        "Inclination(deg)": 53.0,
        "Latitude(deg)": 22.374862410980352,
        "Longitude(deg)": -39.33454913192215,
        "Mean Anomaly(deg)": -208.40547028262839,
        "RAAN(deg)": 259.9828805874434,
        "Satellite Name": "Starlink Shell 1 1152",
        "Satellite Number": 1152,
        "Semi-Major Axis(m)": 6931778.249405717,
        "Time(s)": 330
    },
    {
        "Altitude(m)": 553988.3242214739,
        "Argument of Periapsis(deg)": 0.011851668303382053,
        "Eccentricity": 0.0,
        "Inclination(deg)": 53.0,
        "Latitude(deg)": 21.895392277214295,
        "Longitude(deg)": -38.937126726368604,
        "Mean Anomaly(deg)": -207.7786390790717,
        "RAAN(deg)": 259.9823618173659,
        "Satellite Name": "Starlink Shell 1 1152",
        "Satellite Number": 1152,
        "Semi-Major Axis(m)": 6931778.249405717,
        "Time(s)": 340
    },
    {
        "Altitude(m)": 553942.1882599038,
        "Argument of Periapsis(deg)": 0.012200246782893292,
        "Eccentricity": 0.0,
        "Inclination(deg)": 53.0,
        "Latitude(deg)": 21.414734696858986,
        "Longitude(deg)": -38.54263105680569,
        "Mean Anomaly(deg)": -207.15180787551498,
        "RAAN(deg)": 259.98184304728846,
        "Satellite Name": "Starlink Shell 1 1152",
        "Satellite Number": 1152,
        "Semi-Major Axis(m)": 6931778.249405717,
        "Time(s)": 350
    },
    {
        "Altitude(m)": 553898.0121772987,
        "Argument of Periapsis(deg)": 0.012548825262404526,
        "Eccentricity": 0.0,
        "Inclination(deg)": 53.0,
        "Latitude(deg)": 20.93292561048594,
        "Longitude(deg)": -38.15097917132495,
        "Mean Anomaly(deg)": -206.52497667195817,
        "RAAN(deg)": 259.981324277211,
        "Satellite Name": "Starlink Shell 1 1152",
        "Satellite Number": 1152,
        "Semi-Major Axis(m)": 6931778.249405717,
        "Time(s)": 360
    },
    {
        "Altitude(m)": 553855.838456827,
        "Argument of Periapsis(deg)": 0.012897403741915765,
        "Eccentricity": 0.0,
        "Inclination(deg)": 53.0,
        "Latitude(deg)": 20.450000293365115,
        "Longitude(deg)": -37.76208974780311,
        "Mean Anomaly(deg)": -205.89814546840157,
        "RAAN(deg)": 259.9808055071335,
        "Satellite Name": "Starlink Shell 1 1152",
        "Satellite Number": 1152,
        "Semi-Major Axis(m)": 6931778.249405717,
        "Time(s)": 370
    }
]